307P/LINEAR,e,4.4257,158.0911,222.3236,5.806842,0.0704359,0.67354240,54.8050,02/05.0/2017,2000,g 15.0,4.0
# From MPC 96869
308P/Lagerkvist-Carsenty,e,4.8487,63.1328,334.0043,6.627589,0.0577658,0.36244041,36.9790,02/05.0/2017,2000,g 13.0,2.0
# From MPC 94284
309P/LINEAR,e,17.7109,11.3142,50.3455,4.425795,0.1058564,0.61432930,75.8616,02/05.0/2017,2000,g 15.0,4.0
# From MPC 98566
310P/Hill,e,13.1855,8.9619,31.6863,4.162567,0.1160545,0.42593021,76.3538,02/05.0/2017,2000,g 13.5,4.0
# From MPC101101
311P/PANSTARRS,e,4.9664,279.2631,144.0055,2.188780,0.3043694,0.11570642,312.6087,02/05.0/2017,2000,g 17.0,4.0
# From MPC 92279
312P/NEAT,e,19.8102,144.9111,207.6841,3.457487,0.1533074,0.43088250,156.5238,02/05.0/2017,2000,g 16.0,4.0
# From MPC 92987
313P/Gibbs,e,10.9549,106.4447,253.7892,3.158385,0.1755927,0.24045491,156.5846,02/05.0/2017,2000,g 15.0,4.0
# From MPC 10028
314P/Montani,e,3.9784,267.7015,213.7646,7.262540,0.0503583,0.41703074,6.0421,02/05.0/2017,2000,g  9.5,4.0
# From MPC102957
315P/LONEOS,e,17.9148,69.5495,67.1957,5.014767,0.0877663,0.51734021,5.2799,02/05.0/2017,2000,g 11.0,4.0
# From MPC 92279
316P/LONEOS-Christensen,e,9.8979,246.8558,192.0577,4.307689,0.1102396,0.16840496,51.1249,02/05.0/2017,2000,g 13.5,4.0
# From MPC102103
317P/WISE,e,11.9403,275.5459,334.8082,2.967351,0.1928194,0.57005891,103.7626,02/05.0/2017,2000,g 17.5,4.0
# From MPC102103
318P/McNaught-Hartley,e,17.8705,35.7260,313.1841,7.507956,0.0479095,0.67399790,22.5960,02/05.0/2017,2000,g  8.5,6.0
# From MPC 97499
319P/Catalina-McNaught,e,15.0768,111.3570,203.6359,3.572810,0.1459450,0.66522246,85.2726,02/05.0/2017,2000,g 15.0,4.0
# From MPC 95736
320P/McNaught,e,4.9005,295.9268,0.7431,3.096965,0.1808421,0.68473564,99.0417,02/05.0/2017,2000,g 20.5,4.0
# From MPC 94284
321P/SOHO,e,20.1840,165.1911,172.5641,2.422750,0.2613612,0.98111322,0.0000,04/10.3639/2016,2000,g 20.0,4.0
# From MPC102103
322P/SOHO,e,12.5695,359.4153,49.1339,2.515612,0.2470236,0.97885119,0.0000,09/04.0450/2015,2000,g 19.0,4.0
# From MPC102957
323P/SOHO,e,4.6719,323.0113,354.3180,2.583906,0.2372952,0.98464982,0.0000,11/23.6315/2016,2000,g 20.0,4.0
# From MPC102103
324P/La Sagra,e,21.4180,270.6372,58.4775,3.095509,0.1809698,0.15381465,78.4405,02/05.0/2017,2000,g 13.0,4.0
# From MPC 95736
325P/Yang-Gao,e,16.6932,257.6047,343.5964,3.523595,0.1490133,0.59389869,80.4353,02/05.0/2017,2000,g 14.0,4.0
# From MPC 96869
326P/Hill,e,2.4706,99.8128,278.7752,4.069028,0.1200793,0.31694171,56.6304,02/05.0/2017,2000,g 13.5,4.0
# From MPC 97499
327P/Van Ness,e,36.2145,173.9625,185.0843,3.565552,0.1463908,0.56234854,61.5762,02/05.0/2017,2000,g 16.0,4.0
# From MPC 97499
328P/LONEOS-Tucker,e,17.6490,341.5996,30.6022,4.201730,0.1144358,0.55097951,46.7976,02/05.0/2017,2000,g 14.5,4.0
# From MPC101101
329P/LINEAR-Catalina,e,21.4612,88.6422,342.5689,5.192705,0.0832940,0.68027304,35.5891,02/05.0/2017,2000,g 13.5,4.0
# From MPC102957
330P/Catalina,e,15.5624,294.3698,186.9685,6.576568,0.0584393,0.55096150,9.2888,02/05.0/2017,2000,g 12.0,4.0
# From MPC 98566
331P/Gibbs,e,9.7403,216.8300,178.6352,3.004289,0.1892743,0.04074455,113.0907,02/05.0/2017,2000,g 12.0,4.0
# From MPEC 2016-K18
332P/Ikeya-Murakami,e,9.3869,3.7811,152.4293,3.085729,0.1818308,0.49029086,59.0505,02/05.0/2017,2000,g 18.0,4.0
# From MPC 99822
332P-A/Ikeya-Murakami,e,9.3869,3.7812,152.4291,3.085729,0.1818308,0.49029066,59.0505,02/05.0/2017,2000,g 18.0,4.0
# From MPEC 2016-EI8
332P-B/Ikeya-Murakami,e,9.3805,3.8028,152.3711,3.082329,0.1821317,0.48970701,359.9699,03/17.0/2016,2000,g 19.0,4.0
# From MPC 99822
332P-C/Ikeya-Murakami,e,9.3859,3.7815,152.4205,3.085696,0.1818337,0.49029557,59.0597,02/05.0/2017,2000,g 16.5,4.0
# From MPEC 2016-ED0
332P-D/Ikeya-Murakami,e,9.3761,3.7923,152.4393,3.081138,0.1822373,0.48977814,359.9486,03/17.0/2016,2000,g 19.0,4.0
# From MPEC 2016-ED0
332P-E/Ikeya-Murakami,e,9.3774,3.8228,152.2825,3.079877,0.1823493,0.48922008,359.9889,03/17.0/2016,2000,g 21.0,4.0
# From MPEC 2016-ED0
332P-F/Ikeya-Murakami,e,9.5293,3.4757,152.8203,3.163214,0.1751908,0.49918860,359.8501,03/17.0/2016,2000,g 21.0,4.0
# From MPEC 2016-ED0
332P-G/Ikeya-Murakami,e,9.2523,3.6955,154.4000,3.050519,0.1849880,0.49200362,359.9006,03/19.0/2016,2000,g 19.0,4.0
# From MPC100285
332P-H/Ikeya-Murakami,e,9.3864,3.7813,152.4213,3.085881,0.1818174,0.49033108,59.0215,02/05.0/2017,2000,g 19.0,4.0
# From MPEC 2016-K18
332P-H/Ikeya-Murakami,e,9.3864,3.7813,152.4213,3.085881,0.1818174,0.49033108,59.0215,02/05.0/2017,2000,g 19.0,4.0
# From MPEC 2016-ED0
332P-I/Ikeya-Murakami,e,9.3791,3.8048,152.3297,3.081767,0.1821815,0.48955490,359.9360,03/17.0/2016,2000,g 20.5,2.0
# From MPEC 2016-EI8
332P-J/Ikeya-Murakami,e,9.4296,3.6729,152.7712,3.115165,0.1792596,0.49429435,359.8613,03/17.0/2016,2000,g 22.5,2.0
# From MPC102103
333P/LINEAR,e,131.8737,115.5706,26.1478,4.225108,0.1134873,0.73607406,34.8525,02/05.0/2017,2000,g 15.0,4.0
# From MPC102957
334P/NEAT,e,19.0558,92.6717,80.4956,6.528908,0.0590804,0.35905907,354.7221,02/05.0/2017,2000,g 10.5,4.0
# From MPC 10028
335P/Gibbs,e,7.2873,330.8506,162.3018,3.579837,0.1455155,0.54495738,66.5205,02/05.0/2017,2000,g 17.0,4.0
# From MPC 99822
336P/McNaught,e,17.8391,298.2582,308.4900,5.022939,0.0875522,0.44623038,0.1704,02/05.0/2017,2000,g 13.5,4.0
# From MPC101101
337P/WISE,e,15.3660,106.1057,160.8690,3.287018,0.1653868,0.49663385,34.1945,02/05.0/2017,2000,g 17.0,4.0
# From MPC102957
338P/McNaught,e,25.3505,9.8101,4.5498,3.904523,0.1277474,0.41044642,9.5646,02/05.0/2017,2000,g 12.0,4.0
# From MPC101101
339P/Gibbs,e,5.7440,172.7704,27.4341,3.691022,0.1389902,0.63701861,27.2166,02/05.0/2017,2000,g 17.0,4.0
# From MPC102957
340P/Boattini,e,2.0785,291.7724,35.7541,4.251078,0.1124490,0.27947697,8.8303,02/05.0/2017,2000,g 13.0,4.0
# From MPC102957
341P/Gibbs,e,3.7937,30.0644,312.1767,4.300317,0.1105232,0.41382684,28.0989,02/05.0/2017,2000,g 12.5,4.0
# From MPC101101
342P/SOHO,e,13.0174,44.3304,57.1187,3.043182,0.1856574,0.98250824,0.0000,07/01.6264/2016,2000,g 20.0,4.0
# From MPC102957
343P/NEAT-LONEOS,e,5.5817,257.2422,137.5444,5.475843,0.0769179,0.58359367,0.6365,02/05.0/2017,2000,g 14.0,4.0
# From MPC102957
344P/Read,e,3.4894,273.1813,140.6193,4.878145,0.0914791,0.42179835,8.7557,02/05.0/2017,2000,g 13.0,4.0
# From MPC102957
345P/LINEAR,e,2.7246,154.5169,196.5809,4.045981,0.1211067,0.21938331,24.7052,02/05.0/2017,2000,g 12.0,4.0
# From MPC102958
346P/Catalina,e,22.1827,102.5145,335.9022,4.476183,0.1040740,0.50385394,358.9061,02/05.0/2017,2000,g 14.0,4.0
# From MPC102958
347P/PANSTARRS,e,11.7443,261.0442,98.4453,3.612499,0.1435465,0.38437340,21.0475,02/05.0/2017,2000,g 15.0,4.0
